GLOBALSTAR M035 [-]     
1 25851U 99037A   23354.77607062 -.00000104  00000+0 -15374-2 0  9999
2 25851  51.9906 189.0370 0013681 173.1855 273.0140 11.04528286 36104
GLOBALSTAR M032 [-]     
1 25852U 99037B   23354.45592304 -.00000051  00000+0  50997-3 0  9998
2 25852  51.9974  52.5350 0008130 328.7650  31.2666 11.19047155 73808
GLOBALSTAR M051 [-]     
1 25853U 99037C   23354.89854513 -.00000052  00000+0  50170-3 0  9994
2 25853  51.9799 273.9080 0001765 346.6809  13.3955 11.42194269 70191
GLOBALSTAR M030 [-]     
1 25854U 99037D   23354.60401542 -.00000035  00000+0  85095-3 0  9999
2 25854  51.9868 115.3451 0005450 140.0351 220.0868 11.55085184 87112
GLOBALSTAR M048 [-]     
1 25872U 99041A   23354.84127597 -.00000051  00000+0  51929-3 0  9992
2 25872  51.9327 188.0279 0012451 327.7562 138.4213 11.33842326 63232
GLOBALSTAR M026 [-]     
1 25873U 99041B   23354.22315265 -.00000079  00000+0 -53467-3 0  9996
2 25873  52.0032 313.9760 0001908  61.5467  41.7261 11.06833459 88147
GLOBALSTAR M043 [-]     
1 25874U 99041C   23354.94214830 -.00000094  00000+0 -76252-3 0  9996
2 25874  51.9404 273.7427 0013615 102.2029 336.1761 11.25674091 61588
GLOBALSTAR M028 [-]     
1 25875U 99041D   23354.38198663 -.00000073  00000+0  17320-3 0  9997
2 25875  51.9647  17.5269 0063269 328.4828  31.2251 12.50546266122019
